NORAD_CAT_ID,OBJECT_NAME,OBJECT_TYPE,EPOCH,MEAN_MOTION,ECCENTRICITY,INCLINATION,RA_OF_ASC_NODE,ARG_OF_PERICENTER,MEAN_ANOMALY,BSTAR,MEAN_MOTION_DOT,MEAN_MOTION_DDOT,TLE_LINE0,TLE_LINE1,TLE_LINE2,SEMIMAJOR_AXIS,PERIOD,APOGEE,PERIGEE,DECAYED
53575.0,STARLINK-4551,PAYLOAD,2024-01-24 21:59:06,15.0883795,0.0001616,53.2168,292.0057,98.6861,261.4314,2.7792e-05,1.54e-06,0.0,0 STARLINK-4551,1 53575U 22101BA  24024.91605011  .00000154  00000-0  27792-4 0  9997,2 53575  53.2168 292.0057 0001616  98.6861 261.4314 15.08837950 80172,6917.887,95.438,540.87,538.634,0.0
53575.0,STARLINK-4551,PAYLOAD,2024-01-25 01:09:52,15.08840294,0.0001598,53.2171,291.4145,94.5297,265.5877,4.1591e-05,3.74e-06,0.0,0 STARLINK-4551,1 53575U 22101BA  24025.04852871  .00000374  00000-0  41591-4 0  9997,2 53575  53.2171 291.4145 0001598  94.5297 265.5877 15.08840294 79503,6917.879,95.438,540.85,538.639,0.0
53575.0,STARLINK-4551,PAYLOAD,2024-01-25 21:49:53,15.08843157,0.0001475,53.2164,287.5482,85.4346,274.6814,-3.7844e-05,-8.9e-06,0.0,0 STARLINK-4551,1 53575U 22101BA  24025.90965096 -.00000890  00000-0 -37844-4 0  9997,2 53575  53.2164 287.5482 0001475  85.4346 274.6814 15.08843157 80328,6917.871,95.437,540.756,538.715,0.0
53575.0,STARLINK-4551,PAYLOAD,2024-01-26 01:00:40,15.08828903,0.0001643,53.2168,286.9527,87.5571,272.5609,0.00021474,3.13e-05,0.0,0 STARLINK-4551,1 53575U 22101BA  24026.04213176  .00003130  00000-0  21474-3 0  9997,2 53575  53.2168 286.9527 0001643  87.5571 272.5609 15.08828903 79650,6917.914,95.438,540.916,538.643,0.0
53575.0,STARLINK-4551,PAYLOAD,2024-01-26 23:16:03,15.08841303,0.000165,53.2167,282.7899,77.6547,282.463,9.4203e-05,1.212e-05,0.0,0 STARLINK-4551,1 53575U 22101BA  24026.96948967  .00001212  00000-0  94203-4 0  9991,2 53575  53.2167 282.7899 0001650  77.6547 282.4630 15.08841303 79794,6917.876,95.437,540.883,538.6,0.0
53575.0,STARLINK-4551,PAYLOAD,2024-01-27 21:31:27,15.08841697,0.00016,53.2169,278.6258,80.1025,280.0148,4.5991e-05,4.44e-06,0.0,0 STARLINK-4551,1 53575U 22101BA  24027.89685045  .00000444  00000-0  45991-4 0  9995,2 53575  53.2169 278.6258 0001600  80.1025 280.0148 15.08841697 80622,6917.875,95.437,540.847,538.633,0.0
53575.0,STARLINK-4551,PAYLOAD,2024-01-27 23:06:50,15.08842615,0.000162,53.217,278.3282,79.4212,280.6963,5.1444e-05,5.31e-06,0.0,0 STARLINK-4551,1 53575U 22101BA  24027.96308963  .00000531  00000-0  51444-4 0  9991,2 53575  53.2170 278.3282 0001620  79.4212 280.6963 15.08842615 80632,6917.872,95.437,540.858,538.617,0.0
53575.0,STARLINK-4551,PAYLOAD,2024-01-28 19:46:51,15.08839827,0.0001742,53.2178,274.4665,99.7233,260.3956,2.0235e-05,3.4e-07,0.0,0 STARLINK-4551,1 53575U 22101BA  24028.82421184  .00000034  00000-0  20235-4 0  9990,2 53575  53.2178 274.4665 0001742  99.7233 260.3956 15.08839827 80071,6917.881,95.438,540.951,538.541,0.0
53575.0,STARLINK-4551,PAYLOAD,2024-01-28 21:22:15,15.0883887,0.000174,53.2179,274.1691,103.941,256.1776,1.106e-05,-1.12e-06,0.0,0 STARLINK-4551,1 53575U 22101BA  24028.89045231 -.00000112  00000-0  11060-4 0  9996,2 53575  53.2179 274.1691 0001740 103.9410 256.1776 15.08838870 80778,6917.884,95.438,540.953,538.545,0.0
53575.0,STARLINK-4551,PAYLOAD,2024-01-29 16:26:52,15.08840925,0.0001613,53.217,270.5975,100.4196,259.6978,4.5784e-05,4.41e-06,0.0,0 STARLINK-4551,1 53575U 22101BA  24029.68532937  .00000441  00000-0  45784-4 0  9992,2 53575  53.2170 270.5975 0001613 100.4196 259.6978 15.08840925 80895,6917.878,95.437,540.858,538.627,0.0
53575.0,STARLINK-4551,PAYLOAD,2024-01-30 19:28:25,15.08839406,0.0001421,53.2162,265.5411,97.4382,262.6771,3.8691e-05,3.28e-06,0.0,0 STARLINK-4551,1 53575U 22101BA  24030.81141079  .00000328  00000-0  38691-4 0  9995,2 53575  53.2162 265.5411 0001421  97.4382 262.6771 15.08839406 80374,6917.882,95.438,540.73,538.764,0.0
53575.0,STARLINK-4551,PAYLOAD,2024-01-30 21:03:49,15.08839406,0.000142,53.216,265.2436,97.3222,262.7931,3.7891e-05,3.15e-06,0.0,0 STARLINK-4551,1 53575U 22101BA  24030.87765056  .00000315  00000-0  37891-4 0  9995,2 53575  53.2160 265.2436 0001420  97.3222 262.7931 15.08839406 81074,6917.882,95.438,540.73,538.765,0.0
53575.0,STARLINK-4551,PAYLOAD,2024-01-31 00:14:35,15.08840748,0.0001447,53.2163,264.6495,98.5248,261.5908,4.8447e-05,4.83e-06,0.0,0 STARLINK-4551,1 53575U 22101BA  24031.01012942  .00000483  00000-0  48447-4 0  9996,2 53575  53.2163 264.6495 0001447  98.5248 261.5908 15.08840748 81099,6917.878,95.438,540.744,538.742,0.0
53575.0,STARLINK-4551,PAYLOAD,2024-02-01 00:05:23,15.08833014,0.0001535,53.217,260.1911,94.7378,265.379,-7.4686e-06,-4.07e-06,0.0,0 STARLINK-4551,1 53575U 22101BA  24032.00373881 -.00000407  00000-0 -74686-5 0  9991,2 53575  53.2170 260.1911 0001535  94.7378 265.3790 15.08833014 80550,6917.902,95.438,540.829,538.705,0.0
53575.0,STARLINK-4551,PAYLOAD,2024-02-01 14:23:51,15.08837404,0.0001486,53.2168,257.5155,89.305,270.8113,4.1258e-05,3.69e-06,0.0,0 STARLINK-4551,1 53575U 22101BA  24032.59989610  .00000369  00000-0  41258-4 0  9991,2 53575  53.2168 257.5155 0001486  89.3050 270.8113 15.08837404 81333,6917.888,95.438,540.781,538.725,0.0
53575.0,STARLINK-4551,PAYLOAD,2024-02-01 23:56:09,15.0884047,0.0001467,53.216,255.7303,82.332,277.7838,5.8499e-05,6.43e-06,0.0,0 STARLINK-4551,1 53575U 22101BA  24032.99733416  .00000643  00000-0  58499-4 0  9996,2 53575  53.2160 255.7303 0001467  82.3320 277.7838 15.08840470 80709,6917.879,95.438,540.759,538.729,0.0
53575.0,STARLINK-4551,PAYLOAD,2024-02-02 22:11:33,15.08838778,0.0001644,53.2159,251.5688,72.7595,287.3577,4.8489e-05,4.84e-06,0.0,0 STARLINK-4551,1 53575U 22101BA  24033.92469813  .00000484  00000-0  48489-4 0  9998,2 53575  53.2159 251.5688 0001644  72.7595 287.3577 15.08838778 81538,6917.884,95.438,540.886,538.612,0.0
53575.0,STARLINK-4551,PAYLOAD,2024-02-03 20:26:57,15.08842285,0.0001391,53.215,247.402,90.6289,269.4863,3.3869e-05,2.51e-06,0.0,0 STARLINK-4551,1 53575U 22101BA  24034.85205490  .00000251  00000-0  33869-4 0  9998,2 53575  53.2150 247.4020 0001391  90.6289 269.4863 15.08842285 80986,6917.873,95.437,540.701,538.776,0.0
53575.0,STARLINK-4551,PAYLOAD,2024-02-03 23:37:43,15.08843605,0.0001411,53.2151,246.807,90.2431,269.8722,4.3977e-05,4.12e-06,0.0,0 STARLINK-4551,1 53575U 22101BA  24034.98453325  .00000412  00000-0  43977-4 0  9994,2 53575  53.2151 246.8070 0001411  90.2431 269.8722 15.08843605 81697,6917.869,95.437,540.71,538.758,0.0
53575.0,STARLINK-4551,PAYLOAD,2024-02-04 20:17:44,15.08843401,0.0001415,53.2155,242.9401,92.9168,267.1986,5.0158e-05,5.1e-06,0.0,0 STARLINK-4551,1 53575U 22101BA  24035.84565227  .00000510  00000-0  50158-4 0  9993,2 53575  53.2155 242.9401 0001415  92.9168 267.1986 15.08843401 81828,6917.87,95.437,540.714,538.756,0.0
53575.0,STARLINK-4551,PAYLOAD,2024-02-04 23:28:30,15.08843385,0.0001418,53.2155,242.3453,92.9984,267.117,4.8144e-05,4.78e-06,0.0,0 STARLINK-4551,1 53575U 22101BA  24035.97813182  .00000478  00000-0  48144-4 0  9998,2 53575  53.2155 242.3453 0001418  92.9984 267.1170 15.08843385 81150,6917.87,95.437,540.716,538.754,0.0
53575.0,STARLINK-4551,PAYLOAD,2024-02-05 20:08:31,15.08838166,0.0001466,53.2163,238.4782,99.2073,260.9085,-1.3262e-06,-3.09e-06,0.0,0 STARLINK-4551,1 53575U 22101BA  24036.83925654 -.00000309  00000-0 -13262-5 0  9991,2 53575  53.2163 238.4782 0001466  99.2073 260.9085 15.08838166 81283,6917.886,95.438,540.765,538.737,0.0
53575.0,STARLINK-4551,PAYLOAD,2024-02-06 18:23:55,15.08839274,0.000141,53.2165,234.3138,94.8658,265.2495,2.1131e-05,4.8e-07,0.0,0 STARLINK-4551,1 53575U 22101BA  24037.76661565  .00000048  00000-0  21131-4 0  9993,2 53575  53.2165 234.3138 0001410  94.8658 265.2495 15.08839274 82111,6917.883,95.438,540.723,538.772,0.0
53575.0,STARLINK-4551,PAYLOAD,2024-02-07 03:56:14,15.08832213,0.0001317,53.2155,232.5305,97.9197,262.1945,-4.8593e-05,-1.061e-05,0.0,0 STARLINK-4551,1 53575U 22101BA  24038.16406155 -.00001061  00000-0 -48593-4 0  9999,2 53575  53.2155 232.5305 0001317  97.9197 262.1945 15.08832213 81485,6917.904,95.438,540.68,538.858,0.0
53575.0,STARLINK-4551,PAYLOAD,2024-02-07 13:28:33,15.08832224,0.0001273,53.2146,230.7484,91.453,268.6608,5.9524e-06,-1.93e-06,0.0,0 STARLINK-4551,1 53575U 22101BA  24038.56150249 -.00000193  00000-0  59524-5 0  9994,2 53575  53.2146 230.7484 0001273  91.4530 268.6608 15.08832224 82237,6917.904,95.438,540.65,538.889,0.0
53575.0,STARLINK-4551,PAYLOAD,2024-02-07 21:25:29,15.08836512,0.0001285,53.2151,229.262,90.8456,269.2683,5.221e-05,5.43e-06,0.0,0 STARLINK-4551,1 53575U 22101BA  24038.89270014  .00000543  00000-0  52210-4 0  9995,2 53575  53.2151 229.2620 0001285  90.8456 269.2683 15.08836512 82280,6917.891,95.438,540.645,538.867,0.0
53575.0,STARLINK-4551,PAYLOAD,2024-02-07 23:00:52,15.08837733,0.0001275,53.2152,228.9647,94.7696,265.3442,5.6536e-05,6.12e-06,0.0,0 STARLINK-4551,1 53575U 22101BA  24038.95893929  .00000612  00000-0  56536-4 0  9990,2 53575  53.2152 228.9647 0001275  94.7696 265.3442 15.08837733 81605,6917.887,95.438,540.634,538.87,0.0
53575.0,STARLINK-4551,PAYLOAD,2024-02-08 11:43:57,15.08839216,0.0001178,53.2151,226.5854,80.5583,279.5543,1.8183e-05,2e-08,0.0,0 STARLINK-4551,1 53575U 22101BA  24039.48886217  .00000002  00000-0  18183-4 0  9990,2 53575  53.2151 226.5854 0001178  80.5583 279.5543 15.08839216 82370,6917.883,95.438,540.563,538.933,0.0
53575.0,STARLINK-4551,PAYLOAD,2024-02-08 19:40:53,15.08843245,0.0001224,53.2152,225.0986,73.3032,286.8094,6.3182e-05,7.18e-06,0.0,0 STARLINK-4551,1 53575U 22101BA  24039.82005847  .00000718  00000-0  63182-4 0  9993,2 53575  53.2152 225.0986 0001224  73.3032 286.8094 15.08843245 82427,6917.87,95.437,540.582,538.889,0.0
53575.0,STARLINK-4551,PAYLOAD,2024-02-09 11:34:44,15.08836911,0.0001276,53.2151,222.1247,86.6539,273.4599,9.0314e-06,-1.44e-06,0.0,0 STARLINK-4551,1 53575U 22101BA  24040.48246452 -.00000144  00000-0  90314-5 0  9998,2 53575  53.2151 222.1247 0001276  86.6539 273.4599 15.08836911 81838,6917.89,95.438,540.638,538.872,0.0
